FENGYUN 1C DEB          
1 29786U 99025CC  17345.94624122  .00000152  00000-0  11372-3 0  9992
2 29786  99.0354   7.8276 0078338 236.8364 196.2456 14.07612978560295
